[{"OBJECT_NAME":"COSMOS 2538","OBJECT_ID":"2019-039D","EPOCH":"2026-03-09T23:22:28.343424","MEAN_MOTION":15.19536029,"ECCENTRICITY":0.00437345,"INCLINATION":97.5929,"RA_OF_ASC_NODE":147.7512,"ARG_OF_PERICENTER":31.8471,"MEAN_ANOMALY":328.5393,"EPHEMERIS_TYPE":0,"CLASSIFICATION_TYPE":"U","NORAD_CAT_ID":44424,"ELEMENT_SET_NO":999,"REV_AT_EPOCH":36483,"BSTAR":0.00035711669,"MEAN_MOTION_DOT":7.713e-5,"MEAN_MOTION_DDOT":0},{"OBJECT_NAME":"STARLINK-33615","OBJECT_ID":"2025-065AD","EPOCH":"2026-03-09T19:19:36.183360","MEAN_MOTION":15.27559051,"ECCENTRICITY":0.00017969,"INCLINATION":43.0001,"RA_OF_ASC_NODE":106.7116,"ARG_OF_PERICENTER":268.8354,"MEAN_ANOMALY":91.2292,"EPHEMERIS_TYPE":0,"CLASSIFICATION_TYPE":"U","NORAD_CAT_ID":63426,"ELEMENT_SET_NO":999,"REV_AT_EPOCH":5285,"BSTAR":0.00090472703,"MEAN_MOTION_DOT":0.00024702,"MEAN_MOTION_DDOT":0}]
